{"fetched_at":"2026-07-23T17:55:11.690Z","source":"https://celestrak.org/NORAD/elements/gp.php?GROUP=qianfan&FORMAT=JSON","constellation":"qianfan","records":[{"OBJECT_NAME":"QIANFAN-97","OBJECT_ID":"2025-233G","EPOCH":"2026-07-23T01:46:42.891456","CLASSIFICATION_TYPE":"U","MEAN_MOTION":13.51016102,"ECCENTRICITY":0.00021205,"INCLINATION":88.9985,"RA_OF_ASC_NODE":39.5576,"ARG_OF_PERICENTER":94.6973,"MEAN_ANOMALY":265.4421,"EPHEMERIS_TYPE":0,"NORAD_CAT_ID":66039,"ELEMENT_SET_NO":999,"REV_AT_EPOCH":3803,"BSTAR":0.000040805187,"MEAN_MOTION_DOT":3.8e-7,"MEAN_MOTION_DDOT":0},{"OBJECT_NAME":"QIANFAN-98","OBJECT_ID":"2025-233H","EPOCH":"2026-07-23T01:58:32.019456","CLASSIFICATION_TYPE":"U","MEAN_MOTION":13.51015801,"ECCENTRICITY":0.00023442,"INCLINATION":88.9974,"RA_OF_ASC_NODE":39.2836,"ARG_OF_PERICENTER":80.9896,"MEAN_ANOMALY":279.152,"EPHEMERIS_TYPE":0,"NORAD_CAT_ID":66040,"ELEMENT_SET_NO":999,"REV_AT_EPOCH":3817,"BSTAR":0.000042186191,"MEAN_MOTION_DOT":3.9e-7,"MEAN_MOTION_DDOT":0},{"OBJECT_NAME":"QIANFAN-99","OBJECT_ID":"2025-233J","EPOCH":"2026-07-23T02:04:26.343264","CLASSIFICATION_TYPE":"U","MEAN_MOTION":13.51015915,"ECCENTRICITY":0.00023458,"INCLINATION":88.9986,"RA_OF_ASC_NODE":39.5605,"ARG_OF_PERICENTER":85.6896,"MEAN_ANOMALY":274.4523,"EPHEMERIS_TYPE":0,"NORAD_CAT_ID":66041,"ELEMENT_SET_NO":999,"REV_AT_EPOCH":3803,"BSTAR":0.000057703983,"MEAN_MOTION_DOT":4.9e-7,"MEAN_MOTION_DDOT":0},{"OBJECT_NAME":"QIANFAN-100","OBJECT_ID":"2025-233K","EPOCH":"2026-07-23T01:52:31.188000","CLASSIFICATION_TYPE":"U","MEAN_MOTION":13.51015895,"ECCENTRICITY":0.00020951,"INCLINATION":88.9997,"RA_OF_ASC_NODE":39.4924,"ARG_OF_PERICENTER":94.9773,"MEAN_ANOMALY":265.1617,"EPHEMERIS_TYPE":0,"NORAD_CAT_ID":66042,"ELEMENT_SET_NO":999,"REV_AT_EPOCH":3808,"BSTAR":0.000030371096,"MEAN_MOTION_DOT":3.2e-7,"MEAN_MOTION_DDOT":0},{"OBJECT_NAME":"QIANFAN-101","OBJECT_ID":"2025-233L","EPOCH":"2026-07-23T06:30:41.125248","CLASSIFICATION_TYPE":"U","MEAN_MOTION":14.2682585,"ECCENTRICITY":0.00163812,"INCLINATION":88.9984,"RA_OF_ASC_NODE":36.4221,"ARG_OF_PERICENTER":33.7459,"MEAN_ANOMALY":326.4774,"EPHEMERIS_TYPE":0,"NORAD_CAT_ID":66043,"ELEMENT_SET_NO":999,"REV_AT_EPOCH":3977,"BSTAR":0.00010910681,"MEAN_MOTION_DOT":0.00000279,"MEAN_MOTION_DDOT":0},{"OBJECT_NAME":"QIANFAN-102","OBJECT_ID":"2025-233M","EPOCH":"2026-07-23T05:55:33.212352","CLASSIFICATION_TYPE":"U","MEAN_MOTION":13.51015848,"ECCENTRICITY":0.00021609,"INCLINATION":88.9984,"RA_OF_ASC_NODE":39.453,"ARG_OF_PERICENTER":89.2863,"MEAN_ANOMALY":270.8536,"EPHEMERIS_TYPE":0,"NORAD_CAT_ID":66044,"ELEMENT_SET_NO":999,"REV_AT_EPOCH":3810,"BSTAR":0.000059599274,"MEAN_MOTION_DOT":5e-7,"MEAN_MOTION_DDOT":0},{"OBJECT_NAME":"QIANFAN-103","OBJECT_ID":"2025-233N","EPOCH":"2026-07-23T06:01:27.722784","CLASSIFICATION_TYPE":"U","MEAN_MOTION":13.51016723,"ECCENTRICITY":0.00020916,"INCLINATION":88.9987,"RA_OF_ASC_NODE":39.5488,"ARG_OF_PERICENTER":94.7445,"MEAN_ANOMALY":265.3945,"EPHEMERIS_TYPE":0,"NORAD_CAT_ID":66045,"ELEMENT_SET_NO":999,"REV_AT_EPOCH":3805,"BSTAR":0.000047437827,"MEAN_MOTION_DOT":4.3e-7,"MEAN_MOTION_DDOT":0},{"OBJECT_NAME":"QIANFAN-104","OBJECT_ID":"2025-233P","EPOCH":"2026-07-23T02:34:15.022848","CLASSIFICATION_TYPE":"U","MEAN_MOTION":13.51022197,"ECCENTRICITY":0.0002071,"INCLINATION":88.9991,"RA_OF_ASC_NODE":39.4671,"ARG_OF_PERICENTER":87.2286,"MEAN_ANOMALY":272.9103,"EPHEMERIS_TYPE":0,"NORAD_CAT_ID":66046,"ELEMENT_SET_NO":999,"REV_AT_EPOCH":3808,"BSTAR":0.000035752036,"MEAN_MOTION_DOT":3.5e-7,"MEAN_MOTION_DDOT":0},{"OBJECT_NAME":"QIANFAN-105","OBJECT_ID":"2025-233Q","EPOCH":"2026-07-23T06:19:26.188320","CLASSIFICATION_TYPE":"U","MEAN_MOTION":13.51021418,"ECCENTRICITY":0.00022216,"INCLINATION":89.0004,"RA_OF_ASC_NODE":39.299,"ARG_OF_PERICENTER":92.3671,"MEAN_ANOMALY":267.7735,"EPHEMERIS_TYPE":0,"NORAD_CAT_ID":66047,"ELEMENT_SET_NO":999,"REV_AT_EPOCH":3821,"BSTAR":0.000053813575,"MEAN_MOTION_DOT":4.7e-7,"MEAN_MOTION_DDOT":0},{"OBJECT_NAME":"QIANFAN-106","OBJECT_ID":"2025-233R","EPOCH":"2026-07-23T00:53:25.897056","CLASSIFICATION_TYPE":"U","MEAN_MOTION":13.51015779,"ECCENTRICITY":0.00022938,"INCLINATION":88.9973,"RA_OF_ASC_NODE":39.5237,"ARG_OF_PERICENTER":82.3825,"MEAN_ANOMALY":277.7586,"EPHEMERIS_TYPE":0,"NORAD_CAT_ID":66048,"ELEMENT_SET_NO":999,"REV_AT_EPOCH":3802,"BSTAR":0.000039040588,"MEAN_MOTION_DOT":3.7e-7,"MEAN_MOTION_DDOT":0},{"OBJECT_NAME":"QIANFAN-107","OBJECT_ID":"2025-233S","EPOCH":"2026-07-23T06:25:12.695520","CLASSIFICATION_TYPE":"U","MEAN_MOTION":13.51015226,"ECCENTRICITY":0.00020885,"INCLINATION":88.9989,"RA_OF_ASC_NODE":39.5386,"ARG_OF_PERICENTER":93.9331,"MEAN_ANOMALY":266.2058,"EPHEMERIS_TYPE":0,"NORAD_CAT_ID":66049,"ELEMENT_SET_NO":999,"REV_AT_EPOCH":3806,"BSTAR":0.000049970204,"MEAN_MOTION_DOT":4.4e-7,"MEAN_MOTION_DDOT":0},{"OBJECT_NAME":"QIANFAN-108","OBJECT_ID":"2025-233T","EPOCH":"2026-07-23T01:11:09.154464","CLASSIFICATION_TYPE":"U","MEAN_MOTION":13.51016553,"ECCENTRICITY":0.00022564,"INCLINATION":88.9982,"RA_OF_ASC_NODE":39.5458,"ARG_OF_PERICENTER":82.7892,"MEAN_ANOMALY":277.3516,"EPHEMERIS_TYPE":0,"NORAD_CAT_ID":66050,"ELEMENT_SET_NO":999,"REV_AT_EPOCH":3803,"BSTAR":0.00006832466,"MEAN_MOTION_DOT":5.6e-7,"MEAN_MOTION_DDOT":0},{"OBJECT_NAME":"QIANFAN-109","OBJECT_ID":"2026-075A","EPOCH":"2026-07-23T05:04:44.959008","CLASSIFICATION_TYPE":"U","MEAN_MOTION":13.51025546,"ECCENTRICITY":0.00024932,"INCLINATION":88.9919,"RA_OF_ASC_NODE":317.3351,"ARG_OF_PERICENTER":113.9176,"MEAN_ANOMALY":246.2236,"EPHEMERIS_TYPE":0,"NORAD_CAT_ID":68636,"ELEMENT_SET_NO":999,"REV_AT_EPOCH":1465,"BSTAR":0.00015533324,"MEAN_MOTION_DOT":0.00000112,"MEAN_MOTION_DDOT":0},{"OBJECT_NAME":"QIANFAN-110","OBJECT_ID":"2026-075B","EPOCH":"2026-07-23T05:16:37.658784","CLASSIFICATION_TYPE":"U","MEAN_MOTION":13.51017183,"ECCENTRICITY":0.00020853,"INCLINATION":88.9919,"RA_OF_ASC_NODE":317.3558,"ARG_OF_PERICENTER":105.2008,"MEAN_ANOMALY":254.9374,"EPHEMERIS_TYPE":0,"NORAD_CAT_ID":68637,"ELEMENT_SET_NO":999,"REV_AT_EPOCH":1465,"BSTAR":0.00016434549,"MEAN_MOTION_DOT":0.00000118,"MEAN_MOTION_DDOT":0},{"OBJECT_NAME":"QIANFAN-111","OBJECT_ID":"2026-075C","EPOCH":"2026-07-23T04:58:47.188704","CLASSIFICATION_TYPE":"U","MEAN_MOTION":13.51008504,"ECCENTRICITY":0.00021458,"INCLINATION":88.9918,"RA_OF_ASC_NODE":317.3165,"ARG_OF_PERICENTER":104.3398,"MEAN_ANOMALY":255.7991,"EPHEMERIS_TYPE":0,"NORAD_CAT_ID":68638,"ELEMENT_SET_NO":999,"REV_AT_EPOCH":1467,"BSTAR":0.000002887138,"MEAN_MOTION_DOT":1.4e-7,"MEAN_MOTION_DDOT":0},{"OBJECT_NAME":"QIANFAN-112","OBJECT_ID":"2026-075D","EPOCH":"2026-07-23T07:38:37.952448","CLASSIFICATION_TYPE":"U","MEAN_MOTION":13.51014633,"ECCENTRICITY":0.00023086,"INCLINATION":88.9916,"RA_OF_ASC_NODE":317.3137,"ARG_OF_PERICENTER":117.4191,"MEAN_ANOMALY":242.7195,"EPHEMERIS_TYPE":0,"NORAD_CAT_ID":68639,"ELEMENT_SET_NO":999,"REV_AT_EPOCH":1468,"BSTAR":0.00017344928,"MEAN_MOTION_DOT":0.00000124,"MEAN_MOTION_DDOT":0}]}
