QIANFAN-97              
1 66039U 25233G   26204.07410754  .00000038  00000+0  40805-4 0  9992
2 66039  88.9985  39.5576 0002120  94.6973 265.4421 13.51016102 38039
QIANFAN-98              
1 66040U 25233H   26204.08231504  .00000039  00000+0  42186-4 0  9994
2 66040  88.9974  39.2836 0002344  80.9896 279.1520 13.51015801 38177
QIANFAN-99              
1 66041U 25233J   26204.08641601  .00000049  00000+0  57704-4 0  9991
2 66041  88.9986  39.5605 0002345  85.6896 274.4523 13.51015915 38033
QIANFAN-100             
1 66042U 25233K   26204.07813875  .00000032  00000+0  30371-4 0  9998
2 66042  88.9997  39.4924 0002095  94.9773 265.1617 13.51015895 38081
QIANFAN-101             
1 66043U 25233L   26204.27130932  .00000279  00000+0  10911-3 0  9997
2 66043  88.9984  36.4221 0016381  33.7459 326.4774 14.26825850 39775
QIANFAN-102             
1 66044U 25233M   26204.24691218  .00000050  00000+0  59599-4 0  9997
2 66044  88.9984  39.4530 0002160  89.2863 270.8536 13.51015848 38106
QIANFAN-103             
1 66045U 25233N   26204.25101531  .00000043  00000+0  47438-4 0  9994
2 66045  88.9987  39.5488 0002091  94.7445 265.3945 13.51016723 38053
QIANFAN-104             
1 66046U 25233P   26204.10711832  .00000035  00000+0  35752-4 0  9997
2 66046  88.9991  39.4671 0002071  87.2286 272.9103 13.51022197 38085
QIANFAN-105             
1 66047U 25233Q   26204.26349755  .00000047  00000+0  53814-4 0  9998
2 66047  89.0004  39.2990 0002221  92.3671 267.7735 13.51021418 38210
QIANFAN-106             
1 66048U 25233R   26204.03710529  .00000037  00000+0  39041-4 0  9990
2 66048  88.9973  39.5237 0002293  82.3825 277.7586 13.51015779 38027
QIANFAN-107             
1 66049U 25233S   26204.26750805  .00000044  00000+0  49970-4 0  9997
2 66049  88.9989  39.5386 0002088  93.9331 266.2058 13.51015226 38060
QIANFAN-108             
1 66050U 25233T   26204.04941151  .00000056  00000+0  68325-4 0  9999
2 66050  88.9982  39.5458 0002256  82.7892 277.3516 13.51016553 38033
QIANFAN-109             
1 68636U 26075A   26204.21163147  .00000112  00000+0  15533-3 0  9991
2 68636  88.9919 317.3351 0002493 113.9176 246.2236 13.51025546 14657
QIANFAN-110             
1 68637U 26075B   26204.21988031  .00000118  00000+0  16435-3 0  9997
2 68637  88.9919 317.3558 0002085 105.2008 254.9374 13.51017183 14659
QIANFAN-111             
1 68638U 26075C   26204.20749061  .00000014  00000+0  28871-5 0  9999
2 68638  88.9918 317.3165 0002145 104.3398 255.7991 13.51008504 14675
QIANFAN-112             
1 68639U 26075D   26204.31849482  .00000124  00000+0  17345-3 0  9994
2 68639  88.9916 317.3137 0002308 117.4191 242.7195 13.51014633 14683
